ONEWEB-0281             
1 48999U 21060AJ  23239.09590272  .00000003  00000+0 -25274-4 0  9998
2 48999  87.8978  72.8168 0001518  89.2618 270.8687 13.16593658104740
ONEWEB-0282             
1 49000U 21060AK  23239.04944577 -.00000071  00000+0 -21944-3 0  9993
2 49000  87.9075  72.8296 0002134  94.3495 265.7880 13.16591423104713
ONEWEB-0283             
1 49001U 21060AL  23239.03889406  .00000064  00000+0  13260-3 0  9994
2 49001  87.9048  72.8195 0001943 100.9378 259.1972 13.16593720104725
ONEWEB-0284             
1 49002U 21060AM  23239.10855129  .00000024  00000+0  29504-4 0  9993
2 49002  87.8974  72.8510 0002104  90.7317 269.4055 13.16593052104716
ONEWEB-0285             
1 49075U 21075A   23239.35971973 -.00000276  00000+0 -80314-3 0  9998
2 49075  87.9037 194.3647 0002145  80.8142 279.3229 13.12440707100789
ONEWEB-0286             
1 49076U 21075B   23239.40421715  .00000501  00000+0  13567-2 0  9993
2 49076  87.9039 194.3646 0001692  72.3259 287.8054 13.12443269100148
ONEWEB-0287             
1 49077U 21075C   23239.40988443  .00000183  00000+0  43712-3 0  9992
2 49077  87.9113 209.5078 0002260  66.6320 293.5049 13.17646117 98671
ONEWEB-0288             
1 49078U 21075D   23239.38935288  .00000006  00000+0 -17618-4 0  9991
2 49078  87.9040 194.3723 0002103  77.5176 282.6187 13.12445894100765
